0 COSMOS 800
1 08645U 76011A   13281.50129937  .00000047  00000-0  35400-4 0  3945
2 08645 082.9697 278.0241 0020157 250.8349 222.1589 13.71885247886115
0 COSMOS 800
1 08645U 76011A   13282.59890851  .00000049  00000-0  37151-4 0  3953
2 08645 082.9696 277.2184 0020199 247.5907 243.2133 13.71885372886264
0 COSMOS 800
1 08645U 76011A   13284.11296897  .00000043  00000-0  30710-4 0  3962
2 08645 082.9696 276.1068 0020262 243.1066 161.1158 13.71885596886478
0 COSMOS 800
1 08645U 76011A   13286.46010520  .00000021  00000-0  71001-5 0  3986
2 08645 082.9697 274.3836 0020383 236.2567 233.4565 13.71886031886790
0 COSMOS 800
1 08645U 76011A   13287.48989727  .00000007  00000-0 -92827-5 0  3998
2 08645 082.9699 273.6275 0020429 233.2962 279.4827 13.71886036886930
0 COSMOS 800
1 08645U 76011A   13288.50388494  .00000008  00000-0 -71417-5 0  4002
2 08645 082.9701 272.8829 0020481 230.3516 247.4834 13.71886075887073
0 COSMOS 800
1 08645U 76011A   13289.52873257  .00000015  00000-0  41402-7 0  4012
2 08645 082.9703 272.1304 0020537 227.3788 269.1177 13.71886132887216
0 COSMOS 800
1 08645U 76011A   13290.55041365  .00000029  00000-0  15868-4 0  4024
2 08645 082.9705 271.3802 0020556 224.4242 275.1040 13.71886107887359
0 COSMOS 800
1 08645U 76011A   13292.06252399  .00000049  00000-0  38027-4 0  4038
2 08645 082.9709 270.2702 0020667 220.0914 183.2344 13.71886072887561
0 COSMOS 800
1 08645U 76011A   13293.08898125  .00000053  00000-0  42345-4 0  4048
2 08645 082.9710 269.5167 0020736 217.1941 212.7384 13.71886010887703
0 COSMOS 800
1 08645U 76011A   13294.10547042  .00000053  00000-0  42325-4 0  4050
2 08645 082.9711 268.7706 0020788 214.3021 193.0339 13.71886030887847
0 COSMOS 800
1 08645U 76011A   13295.44101818  .00000065  00000-0  54832-4 0  4065
2 08645 082.9712 267.7903 0020863 210.5199 309.0972 13.71886140888029
